[{"OBJECT_NAME":"DUPLEX","OBJECT_ID":"1998-067XS","EPOCH":"2026-04-04T13:54:10.138464","MEAN_MOTION":15.5800249,"ECCENTRICITY":0.000339,"INCLINATION":51.6284,"RA_OF_ASC_NODE":299.7899,"ARG_OF_PERICENTER":234.7456,"MEAN_ANOMALY":125.3219,"EPHEMERIS_TYPE":0,"CLASSIFICATION_TYPE":"U","NORAD_CAT_ID":66906,"ELEMENT_SET_NO":999,"REV_AT_EPOCH":1916,"BSTAR":0.00048606,"MEAN_MOTION_DOT":0.00036815,"MEAN_MOTION_DDOT":0},{"OBJECT_NAME":"ISS OBJECT XT","OBJECT_ID":"1998-067XT","EPOCH":"2026-04-04T13:11:17.854944","MEAN_MOTION":15.80264331,"ECCENTRICITY":0.00071857,"INCLINATION":51.6224,"RA_OF_ASC_NODE":292.7926,"ARG_OF_PERICENTER":249.6883,"MEAN_ANOMALY":110.3346,"EPHEMERIS_TYPE":0,"CLASSIFICATION_TYPE":"U","NORAD_CAT_ID":66907,"ELEMENT_SET_NO":999,"REV_AT_EPOCH":1925,"BSTAR":0.0015899957,"MEAN_MOTION_DOT":0.00316879,"MEAN_MOTION_DDOT":0},{"OBJECT_NAME":"ISS OBJECT XU","OBJECT_ID":"1998-067XU","EPOCH":"2026-04-04T13:04:01.545312","MEAN_MOTION":15.80626802,"ECCENTRICITY":0.00073235,"INCLINATION":51.6221,"RA_OF_ASC_NODE":292.7537,"ARG_OF_PERICENTER":249.1942,"MEAN_ANOMALY":110.8275,"EPHEMERIS_TYPE":0,"CLASSIFICATION_TYPE":"U","NORAD_CAT_ID":66908,"ELEMENT_SET_NO":999,"REV_AT_EPOCH":1925,"BSTAR":0.0016262848,"MEAN_MOTION_DOT":0.00330086,"MEAN_MOTION_DDOT":0},{"OBJECT_NAME":"SILVERSAT","OBJECT_ID":"1998-067XV","EPOCH":"2026-04-04T18:53:20.827104","MEAN_MOTION":15.88187528,"ECCENTRICITY":0.000905,"INCLINATION":51.6184,"RA_OF_ASC_NODE":289.8512,"ARG_OF_PERICENTER":258.4718,"MEAN_ANOMALY":101.5271,"EPHEMERIS_TYPE":0,"CLASSIFICATION_TYPE":"U","NORAD_CAT_ID":66909,"ELEMENT_SET_NO":999,"REV_AT_EPOCH":1931,"BSTAR":0.0018876,"MEAN_MOTION_DOT":0.00565248,"MEAN_MOTION_DDOT":0},{"OBJECT_NAME":"ISS OBJECT XW","OBJECT_ID":"1998-067XW","EPOCH":"2026-04-04T19:36:47.566944","MEAN_MOTION":15.78347512,"ECCENTRICITY":0.0007449,"INCLINATION":51.6195,"RA_OF_ASC_NODE":291.5715,"ARG_OF_PERICENTER":246.0581,"MEAN_ANOMALY":113.9639,"EPHEMERIS_TYPE":0,"CLASSIFICATION_TYPE":"U","NORAD_CAT_ID":66910,"ELEMENT_SET_NO":999,"REV_AT_EPOCH":1929,"BSTAR":0.001262,"MEAN_MOTION_DOT":0.00228077,"MEAN_MOTION_DDOT":0},{"OBJECT_NAME":"ISS OBJECT XX","OBJECT_ID":"1998-067XX","EPOCH":"2026-04-04T13:36:50.998752","MEAN_MOTION":15.98982118,"ECCENTRICITY":0.0011132,"INCLINATION":51.6142,"RA_OF_ASC_NODE":289.085,"ARG_OF_PERICENTER":263.744,"MEAN_ANOMALY":96.2301,"EPHEMERIS_TYPE":0,"CLASSIFICATION_TYPE":"U","NORAD_CAT_ID":66911,"ELEMENT_SET_NO":999,"REV_AT_EPOCH":1929,"BSTAR":0.0020785,"MEAN_MOTION_DOT":0.0103035,"MEAN_MOTION_DDOT":0.00052428},{"OBJECT_NAME":"ISS OBJECT XY","OBJECT_ID":"1998-067XY","EPOCH":"2026-04-04T19:16:22.901376","MEAN_MOTION":15.69558582,"ECCENTRICITY":0.0005119,"INCLINATION":51.625,"RA_OF_ASC_NODE":294.5166,"ARG_OF_PERICENTER":244.3771,"MEAN_ANOMALY":115.6697,"EPHEMERIS_TYPE":0,"CLASSIFICATION_TYPE":"U","NORAD_CAT_ID":66912,"ELEMENT_SET_NO":999,"REV_AT_EPOCH":1924,"BSTAR":0.0011708,"MEAN_MOTION_DOT":0.00143123,"MEAN_MOTION_DDOT":0},{"OBJECT_NAME":"KNACKSAT-2","OBJECT_ID":"1998-067XZ","EPOCH":"2026-04-04T18:57:48.329280","MEAN_MOTION":15.54148205,"ECCENTRICITY":0.0010721,"INCLINATION":51.6331,"RA_OF_ASC_NODE":301.9471,"ARG_OF_PERICENTER":281.6024,"MEAN_ANOMALY":78.3763,"EPHEMERIS_TYPE":0,"CLASSIFICATION_TYPE":"U","NORAD_CAT_ID":67683,"ELEMENT_SET_NO":999,"REV_AT_EPOCH":884,"BSTAR":0.00075544,"MEAN_MOTION_DOT":0.0004999,"MEAN_MOTION_DDOT":0},{"OBJECT_NAME":"CORAL","OBJECT_ID":"1998-067YA","EPOCH":"2026-04-04T19:55:27.772320","MEAN_MOTION":15.59172561,"ECCENTRICITY":0.0013624,"INCLINATION":51.629,"RA_OF_ASC_NODE":300.7162,"ARG_OF_PERICENTER":272.7085,"MEAN_ANOMALY":87.2349,"EPHEMERIS_TYPE":0,"CLASSIFICATION_TYPE":"U","NORAD_CAT_ID":67684,"ELEMENT_SET_NO":999,"REV_AT_EPOCH":886,"BSTAR":0.0011615,"MEAN_MOTION_DOT":0.00093721,"MEAN_MOTION_DDOT":0},{"OBJECT_NAME":"GXIBA-1","OBJECT_ID":"1998-067YB","EPOCH":"2026-04-04T18:39:38.477952","MEAN_MOTION":15.54782829,"ECCENTRICITY":0.0012502,"INCLINATION":51.6301,"RA_OF_ASC_NODE":301.8662,"ARG_OF_PERICENTER":279.3255,"MEAN_ANOMALY":80.6322,"EPHEMERIS_TYPE":0,"CLASSIFICATION_TYPE":"U","NORAD_CAT_ID":67685,"ELEMENT_SET_NO":999,"REV_AT_EPOCH":884,"BSTAR":0.00083058,"MEAN_MOTION_DOT":0.00056407,"MEAN_MOTION_DDOT":0},{"OBJECT_NAME":"UITMSAT-2","OBJECT_ID":"1998-067YC","EPOCH":"2026-04-04T19:44:22.850016","MEAN_MOTION":15.55936506,"ECCENTRICITY":0.0009548,"INCLINATION":51.6303,"RA_OF_ASC_NODE":301.4182,"ARG_OF_PERICENTER":253.7696,"MEAN_ANOMALY":106.2245,"EPHEMERIS_TYPE":0,"CLASSIFICATION_TYPE":"U","NORAD_CAT_ID":67686,"ELEMENT_SET_NO":999,"REV_AT_EPOCH":885,"BSTAR":0.00081491,"MEAN_MOTION_DOT":0.00057681,"MEAN_MOTION_DDOT":0},{"OBJECT_NAME":"HMU-SAT2","OBJECT_ID":"1998-067YD","EPOCH":"2026-04-04T18:48:25.578432","MEAN_MOTION":15.54504888,"ECCENTRICITY":0.0009085,"INCLINATION":51.631,"RA_OF_ASC_NODE":301.9093,"ARG_OF_PERICENTER":256.2021,"MEAN_ANOMALY":103.7959,"EPHEMERIS_TYPE":0,"CLASSIFICATION_TYPE":"U","NORAD_CAT_ID":67687,"ELEMENT_SET_NO":999,"REV_AT_EPOCH":876,"BSTAR":0.00080536,"MEAN_MOTION_DOT":0.00054021,"MEAN_MOTION_DDOT":0},{"OBJECT_NAME":"LEOPARD","OBJECT_ID":"1998-067YE","EPOCH":"2026-04-04T19:57:03.739392","MEAN_MOTION":15.55413317,"ECCENTRICITY":0.0009245,"INCLINATION":51.6311,"RA_OF_ASC_NODE":301.4769,"ARG_OF_PERICENTER":254.0354,"MEAN_ANOMALY":105.9619,"EPHEMERIS_TYPE":0,"CLASSIFICATION_TYPE":"U","NORAD_CAT_ID":67688,"ELEMENT_SET_NO":999,"REV_AT_EPOCH":877,"BSTAR":0.00077371,"MEAN_MOTION_DOT":0.00053651,"MEAN_MOTION_DDOT":0},{"OBJECT_NAME":"CREW DRAGON 12","OBJECT_ID":"2026-031A","EPOCH":"2026-04-04T20:14:42.961056","MEAN_MOTION":15.4877361,"ECCENTRICITY":0.0006326,"INCLINATION":51.6331,"RA_OF_ASC_NODE":303.0545,"ARG_OF_PERICENTER":272.5089,"MEAN_ANOMALY":87.5175,"EPHEMERIS_TYPE":0,"CLASSIFICATION_TYPE":"U","NORAD_CAT_ID":67796,"ELEMENT_SET_NO":999,"REV_AT_EPOCH":56035,"BSTAR":0.00017936,"MEAN_MOTION_DOT":9.37e-5,"MEAN_MOTION_DDOT":0},{"OBJECT_NAME":"PROGRESS-MS 33","OBJECT_ID":"2026-058A","EPOCH":"2026-04-04T20:14:42.961056","MEAN_MOTION":15.4877361,"ECCENTRICITY":0.0006326,"INCLINATION":51.6331,"RA_OF_ASC_NODE":303.0545,"ARG_OF_PERICENTER":272.5089,"MEAN_ANOMALY":87.5175,"EPHEMERIS_TYPE":0,"CLASSIFICATION_TYPE":"U","NORAD_CAT_ID":68319,"ELEMENT_SET_NO":999,"REV_AT_EPOCH":186,"BSTAR":0.00017936,"MEAN_MOTION_DOT":9.37e-5,"MEAN_MOTION_DDOT":0}]
