DUPLEX                  
1 66906U 98067XS  26094.57928401  .00036815  00000+0  48606-3 0  9993
2 66906  51.6284 299.7899 0003390 234.7456 125.3219 15.58002490 19168
ISS OBJECT XT           
1 66907U 98067XT  26094.54951221  .00316879  00000+0  15900-2 0  9998
2 66907  51.6224 292.7926 0007185 249.6883 110.3346 15.80264331 19256
ISS OBJECT XU           
1 66908U 98067XU  26094.54446233  .00330086  00000+0  16263-2 0  9990
2 66908  51.6221 292.7537 0007323 249.1942 110.8275 15.80626802 19258
SILVERSAT               
1 66909U 98067XV  26094.78704661  .00565248  00000+0  18876-2 0  9991
2 66909  51.6184 289.8512 0009050 258.4718 101.5271 15.88187528 19315
ISS OBJECT XW           
1 66910U 98067XW  26094.81721721  .00228077  00000+0  12620-2 0  9990
2 66910  51.6195 291.5715 0007449 246.0581 113.9639 15.78347512 19297
ISS OBJECT XX           
1 66911U 98067XX  26094.56725693  .01030350  52428-3  20785-2 0  9997
2 66911  51.6142 289.0850 0011132 263.7440  96.2301 15.98982118 19294
ISS OBJECT XY           
1 66912U 98067XY  26094.80304284  .00143123  00000+0  11708-2 0  9996
2 66912  51.6250 294.5166 0005119 244.3771 115.6697 15.69558582 19247
KNACKSAT-2              
1 67683U 98067XZ  26094.79014270  .00049990  00000+0  75544-3 0  9999
2 67683  51.6331 301.9471 0010721 281.6024  78.3763 15.54148205  8849
CORAL                   
1 67684U 98067YA  26094.83018255  .00093721  00000+0  11615-2 0  9991
2 67684  51.6290 300.7162 0013624 272.7085  87.2349 15.59172561  8869
GXIBA-1                 
1 67685U 98067YB  26094.77752868  .00056407  00000+0  83058-3 0  9991
2 67685  51.6301 301.8662 0012502 279.3255  80.6322 15.54782829  8841
UITMSAT-2               
1 67686U 98067YC  26094.82248669  .00057681  00000+0  81491-3 0  9991
2 67686  51.6303 301.4182 0009548 253.7696 106.2245 15.55936506  8852
HMU-SAT2                
1 67687U 98067YD  26094.78362938  .00054021  00000+0  80536-3 0  9997
2 67687  51.6310 301.9093 0009085 256.2021 103.7959 15.54504888  8760
LEOPARD                 
1 67688U 98067YE  26094.83129328  .00053651  00000+0  77371-3 0  9999
2 67688  51.6311 301.4769 0009245 254.0354 105.9619 15.55413317  8775
CREW DRAGON 12          
1 67796U 26031A   26094.84355279  .00009370  00000+0  17936-3 0  9998
2 67796  51.6331 303.0545 0006326 272.5089  87.5175 15.48773610560350
PROGRESS-MS 33          
1 68319U 26058A   26094.84355279  .00009370  00000+0  17936-3 0  9999
2 68319  51.6331 303.0545 0006326 272.5089  87.5175 15.48773610  1868
